SITRO-AIS 26            
1 59067U 24039S   26089.22376176  .00006510  00000+0  51780-3 0  9999
2 59067  95.3935 180.7630 0144952 244.1854 114.4359 14.92626528112939
SITRO-AIS 27            
1 59068U 24039T   26089.21565652  .00006923  00000+0  54592-3 0  9990
2 59068  95.3938 180.9933 0143978 242.9681 115.6788 14.93027409112957
SITRO-AIS 28            
1 59071U 24039U   26089.19493521  .00007540  00000+0  59389-3 0  9991
2 59071  95.3933 181.0217 0143904 242.8763 115.7725 14.93057557112951
GRBBETA                 
1 60237U 24128C   26089.09216130  .00005133  00000+0  35542-3 0  9995
2 60237  61.9892 133.6374 0049509 118.0126 242.5988 15.05999954 94353
OOV-CUBE (TUBSAT-30)    
1 60240U 24128F   26089.12973280  .00003047  00000+0  23812-3 0  9998
2 60240  61.9945 141.1625 0052836 116.5535 244.0986 15.02381947 94239
ROBUSTA-3A (MEDITERRAN*)
1 60243U 24128J   26089.18909304  .00008837  00000+0  53143-3 0  9995
2 60243  61.9857 127.3483 0049976 111.9300 248.7118 15.10461732 94487
LASARSAT                
1 62391U 24247Q   26089.10684436  .00044234  00000+0  10322-2 0  9993
2 62391  44.9773 344.9772 0004640 210.6452 149.4165 15.41565142 71098
CROCUBE                 
1 62394U 24247T   26089.12050933  .00048229  00000+0  10769-2 0  9990
2 62394  44.9745 343.3053 0004063 208.3386 151.7282 15.42849378 71110
FORESAIL-1 PRIME        
1 66778U 25276DS  26089.10962281  .00007737  00000+0  38429-3 0  9992
2 66778  97.4249 163.8563 0003248  51.5766 308.5759 15.17939944 18402
KNACKSAT-2              
1 67683U 98067XZ  26089.06615953  .00053219  00000+0  82160-3 0  9999
2 67683  51.6326 330.4771 0010084 259.9435 100.0418 15.53540643  7951
