
    {
        "ARG_OF_PERICENTER": 244.1854,
        "BSTAR": 0.0005178,
        "CLASSIFICATION_TYPE": "U",
        "ECCENTRICITY": 0.0144952,
        "ELEMENT_SET_NO": 999,
        "EPHEMERIS_TYPE": 0,
        "EPOCH": "2026-03-30T05:22:13.016064",
        "INCLINATION": 95.3935,
        "MEAN_ANOMALY": 114.4359,
        "MEAN_MOTION": 14.92626528,
        "MEAN_MOTION_DDOT": 0,
        "MEAN_MOTION_DOT": 6.51e-05,
        "NORAD_CAT_ID": 59067,
        "OBJECT_ID": "2024-039S",
        "OBJECT_NAME": "SITRO-AIS 26",
        "RA_OF_ASC_NODE": 180.763,
        "REV_AT_EPOCH": 11293
    },
    {
        "ARG_OF_PERICENTER": 242.9681,
        "BSTAR": 0.00054592,
        "CLASSIFICATION_TYPE": "U",
        "ECCENTRICITY": 0.0143978,
        "ELEMENT_SET_NO": 999,
        "EPHEMERIS_TYPE": 0,
        "EPOCH": "2026-03-30T05:10:32.723328",
        "INCLINATION": 95.3938,
        "MEAN_ANOMALY": 115.6788,
        "MEAN_MOTION": 14.93027409,
        "MEAN_MOTION_DDOT": 0,
        "MEAN_MOTION_DOT": 6.923e-05,
        "NORAD_CAT_ID": 59068,
        "OBJECT_ID": "2024-039T",
        "OBJECT_NAME": "SITRO-AIS 27",
        "RA_OF_ASC_NODE": 180.9933,
        "REV_AT_EPOCH": 11295
    },
    {
        "ARG_OF_PERICENTER": 242.8763,
        "BSTAR": 0.00059389,
        "CLASSIFICATION_TYPE": "U",
        "ECCENTRICITY": 0.0143904,
        "ELEMENT_SET_NO": 999,
        "EPHEMERIS_TYPE": 0,
        "EPOCH": "2026-03-30T04:40:42.402144",
        "INCLINATION": 95.3933,
        "MEAN_ANOMALY": 115.7725,
        "MEAN_MOTION": 14.93057557,
        "MEAN_MOTION_DDOT": 0,
        "MEAN_MOTION_DOT": 7.54e-05,
        "NORAD_CAT_ID": 59071,
        "OBJECT_ID": "2024-039U",
        "OBJECT_NAME": "SITRO-AIS 28",
        "RA_OF_ASC_NODE": 181.0217,
        "REV_AT_EPOCH": 11295
    },
    {
        "ARG_OF_PERICENTER": 118.0126,
        "BSTAR": 0.00035542,
        "CLASSIFICATION_TYPE": "U",
        "ECCENTRICITY": 0.0049509,
        "ELEMENT_SET_NO": 999,
        "EPHEMERIS_TYPE": 0,
        "EPOCH": "2026-03-30T02:12:42.736320",
        "INCLINATION": 61.9892,
        "MEAN_ANOMALY": 242.5988,
        "MEAN_MOTION": 15.05999954,
        "MEAN_MOTION_DDOT": 0,
        "MEAN_MOTION_DOT": 5.133e-05,
        "NORAD_CAT_ID": 60237,
        "OBJECT_ID": "2024-128C",
        "OBJECT_NAME": "GRBBETA",
        "RA_OF_ASC_NODE": 133.6374,
        "REV_AT_EPOCH": 9435
    },
    {
        "ARG_OF_PERICENTER": 116.5535,
        "BSTAR": 0.00023812,
        "CLASSIFICATION_TYPE": "U",
        "ECCENTRICITY": 0.0052836,
        "ELEMENT_SET_NO": 999,
        "EPHEMERIS_TYPE": 0,
        "EPOCH": "2026-03-30T03:06:48.913920",
        "INCLINATION": 61.9945,
        "MEAN_ANOMALY": 244.0986,
        "MEAN_MOTION": 15.02381947,
        "MEAN_MOTION_DDOT": 0,
        "MEAN_MOTION_DOT": 3.047e-05,
        "NORAD_CAT_ID": 60240,
        "OBJECT_ID": "2024-128F",
        "OBJECT_NAME": "OOV-CUBE (TUBSAT-30)",
        "RA_OF_ASC_NODE": 141.1625,
        "REV_AT_EPOCH": 9423
    },
    {
        "ARG_OF_PERICENTER": 111.93,
        "BSTAR": 0.00053143,
        "CLASSIFICATION_TYPE": "U",
        "ECCENTRICITY": 0.0049976,
        "ELEMENT_SET_NO": 999,
        "EPHEMERIS_TYPE": 0,
        "EPOCH": "2026-03-30T04:32:17.638656",
        "INCLINATION": 61.9857,
        "MEAN_ANOMALY": 248.7118,
        "MEAN_MOTION": 15.10461732,
        "MEAN_MOTION_DDOT": 0,
        "MEAN_MOTION_DOT": 8.837e-05,
        "NORAD_CAT_ID": 60243,
        "OBJECT_ID": "2024-128J",
        "OBJECT_NAME": "ROBUSTA-3A (MEDITERRANEE)",
        "RA_OF_ASC_NODE": 127.3483,
        "REV_AT_EPOCH": 9448
    },
    {
        "ARG_OF_PERICENTER": 210.6452,
        "BSTAR": 0.0010322,
        "CLASSIFICATION_TYPE": "U",
        "ECCENTRICITY": 0.000464,
        "ELEMENT_SET_NO": 999,
        "EPHEMERIS_TYPE": 0,
        "EPOCH": "2026-03-30T02:33:51.352704",
        "INCLINATION": 44.9773,
        "MEAN_ANOMALY": 149.4165,
        "MEAN_MOTION": 15.41565142,
        "MEAN_MOTION_DDOT": 0,
        "MEAN_MOTION_DOT": 0.00044234,
        "NORAD_CAT_ID": 62391,
        "OBJECT_ID": "2024-247Q",
        "OBJECT_NAME": "LASARSAT",
        "RA_OF_ASC_NODE": 344.9772,
        "REV_AT_EPOCH": 7109
    },
    {
        "ARG_OF_PERICENTER": 208.3386,
        "BSTAR": 0.0010769,
        "CLASSIFICATION_TYPE": "U",
        "ECCENTRICITY": 0.0004063,
        "ELEMENT_SET_NO": 999,
        "EPHEMERIS_TYPE": 0,
        "EPOCH": "2026-03-30T02:53:32.006112",
        "INCLINATION": 44.9745,
        "MEAN_ANOMALY": 151.7282,
        "MEAN_MOTION": 15.42849378,
        "MEAN_MOTION_DDOT": 0,
        "MEAN_MOTION_DOT": 0.00048229,
        "NORAD_CAT_ID": 62394,
        "OBJECT_ID": "2024-247T",
        "OBJECT_NAME": "CROCUBE",
        "RA_OF_ASC_NODE": 343.3053,
        "REV_AT_EPOCH": 7111
    },
    {
        "ARG_OF_PERICENTER": 51.5766,
        "BSTAR": 0.00038429,
        "CLASSIFICATION_TYPE": "U",
        "ECCENTRICITY": 0.0003248,
        "ELEMENT_SET_NO": 999,
        "EPHEMERIS_TYPE": 0,
        "EPOCH": "2026-03-30T02:37:51.410784",
        "INCLINATION": 97.4249,
        "MEAN_ANOMALY": 308.5759,
        "MEAN_MOTION": 15.17939944,
        "MEAN_MOTION_DDOT": 0,
        "MEAN_MOTION_DOT": 7.737e-05,
        "NORAD_CAT_ID": 66778,
        "OBJECT_ID": "2025-276DS",
        "OBJECT_NAME": "FORESAIL-1 PRIME",
        "RA_OF_ASC_NODE": 163.8563,
        "REV_AT_EPOCH": 1840
    },
    {
        "ARG_OF_PERICENTER": 259.9435,
        "BSTAR": 0.0008216,
        "CLASSIFICATION_TYPE": "U",
        "ECCENTRICITY": 0.0010084,
        "ELEMENT_SET_NO": 999,
        "EPHEMERIS_TYPE": 0,
        "EPOCH": "2026-03-30T01:35:16.183392",
        "INCLINATION": 51.6326,
        "MEAN_ANOMALY": 100.0418,
        "MEAN_MOTION": 15.53540643,
        "MEAN_MOTION_DDOT": 0,
        "MEAN_MOTION_DOT": 0.00053219,
        "NORAD_CAT_ID": 67683,
        "OBJECT_ID": "1998-067XZ",
        "OBJECT_NAME": "KNACKSAT-2",
        "RA_OF_ASC_NODE": 330.4771,
        "REV_AT_EPOCH": 795
    }